{
  "type": "FeatureCollection",
  "features": [
    {
      "type": "Feature",
      "properties": {
        "norad_id": 40691,
        "name": "FENGYUN 1C DEB",
        "group": "fengyun-1c-debris",
        "lat": -73.25958514008406,
        "lon": -178.4345645526855,
        "alt_km": 845.1744210726647,
        "timestamp": "2025-12-27T17:24:57.696015+00:00",
        "meta_object_name": "FENGYUN 1C DEB",
        "meta_object_id": "1999-025EWX",
        "meta_epoch": "2025-12-03T08:15:02.306016",
        "meta_mean_motion": 13.89944729,
        "meta_eccentricity": 0.0128434,
        "meta_inclination": 99.0573,
        "meta_ra_of_asc_node": 9.8547,
        "meta_arg_of_pericenter": 336.6089,
        "meta_mean_anomaly": 22.9259,
        "meta_ephemeris_type": 0,
        "meta_classification_type": "U",
        "meta_norad_cat_id": 40691,
        "meta_element_set_no": 999,
        "meta_rev_at_epoch": 55305,
        "meta_bstar": 0.00023937,
        "meta_mean_motion_dot": 2.71e-06,
        "meta_mean_motion_ddot": 0,
        "tle_line1": "1 40691U 99025EWX 25337.34377669  .00000271  00000+0  23937-3 0  9996",
        "tle_line2": "2 40691  99.0573   9.8547 0128434 336.6089  22.9259 13.89944729553058"
      },
      "geometry": {
        "type": "Point",
        "coordinates": [
          -178.4345645526855,
          -73.25958514008406
        ]
      }
    },
    {
      "type": "Feature",
      "properties": {
        "norad_id": 40695,
        "name": "FENGYUN 1C DEB",
        "group": "fengyun-1c-debris",
        "lat": 13.455821469140743,
        "lon": 119.47600817833596,
        "alt_km": 701.4044024459972,
        "timestamp": "2025-12-27T17:24:57.696025+00:00",
        "meta_object_name": "FENGYUN 1C DEB",
        "meta_object_id": "1999-025EXB",
        "meta_epoch": "2025-12-22T14:53:14.266464",
        "meta_mean_motion": 14.50985865,
        "meta_eccentricity": 0.02804135,
        "meta_inclination": 99.4259,
        "meta_ra_of_asc_node": 116.031,
        "meta_arg_of_pericenter": 303.6454,
        "meta_mean_anomaly": 53.8273,
        "meta_ephemeris_type": 0,
        "meta_classification_type": "U",
        "meta_norad_cat_id": 40695,
        "meta_element_set_no": 999,
        "meta_rev_at_epoch": 32009,
        "meta_bstar": 0.00019428885,
        "meta_mean_motion_dot": 1.201e-05,
        "meta_mean_motion_ddot": 0,
        "tle_line1": "1 40695U 99025EXB 25356.62030401  .00001201  00000+0  19429-3 0  9997",
        "tle_line2": "2 40695  99.4259 116.0310 0280413 303.6454  53.8273 14.50985865320092"
      },
      "geometry": {
        "type": "Point",
        "coordinates": [
          119.47600817833596,
          13.455821469140743
        ]
      }
    },
    {
      "type": "Feature",
      "properties": {
        "norad_id": 40696,
        "name": "FENGYUN 1C DEB",
        "group": "fengyun-1c-debris",
        "lat": -29.041952504477365,
        "lon": 163.06819190052002,
        "alt_km": 927.2955950614933,
        "timestamp": "2025-12-27T17:24:57.696037+00:00",
        "meta_object_name": "FENGYUN 1C DEB",
        "meta_object_id": "1999-025EXC",
        "meta_epoch": "2025-12-26T16:20:27.303648",
        "meta_mean_motion": 13.96750359,
        "meta_eccentricity": 0.00793327,
        "meta_inclination": 98.9581,
        "meta_ra_of_asc_node": 347.0754,
        "meta_arg_of_pericenter": 319.1594,
        "meta_mean_anomaly": 40.3641,
        "meta_ephemeris_type": 0,
        "meta_classification_type": "U",
        "meta_norad_cat_id": 40696,
        "meta_element_set_no": 999,
        "meta_rev_at_epoch": 55874,
        "meta_bstar": 0.00036458754,
        "meta_mean_motion_dot": 4.76e-06,
        "meta_mean_motion_ddot": 0,
        "tle_line1": "1 40696U 99025EXC 25360.68087157  .00000476  00000+0  36459-3 0  9994",
        "tle_line2": "2 40696  98.9581 347.0754 0079332 319.1594  40.3641 13.96750359558748"
      },
      "geometry": {
        "type": "Point",
        "coordinates": [
          163.06819190052002,
          -29.041952504477365
        ]
      }
    },
    {
      "type": "Feature",
      "properties": {
        "norad_id": 41003,
        "name": "FENGYUN 1C DEB",
        "group": "fengyun-1c-debris",
        "lat": -80.07393043326373,
        "lon": 37.945098214637,
        "alt_km": 612.5827718967312,
        "timestamp": "2025-12-27T17:24:57.696047+00:00",
        "meta_object_name": "FENGYUN 1C DEB",
        "meta_object_id": "1999-025EXH",
        "meta_epoch": "2025-12-26T12:30:25.047936",
        "meta_mean_motion": 14.73506426,
        "meta_eccentricity": 0.0067722,
        "meta_inclination": 98.9659,
        "meta_ra_of_asc_node": 281.0623,
        "meta_arg_of_pericenter": 248.3299,
        "meta_mean_anomaly": 111.0684,
        "meta_ephemeris_type": 0,
        "meta_classification_type": "U",
        "meta_norad_cat_id": 41003,
        "meta_element_set_no": 999,
        "meta_rev_at_epoch": 52623,
        "meta_bstar": 0.0042088,
        "meta_mean_motion_dot": 0.00028413,
        "meta_mean_motion_ddot": 0,
        "tle_line1": "1 41003U 99025EXH 25360.52112324  .00028413  00000+0  42088-2 0  9990",
        "tle_line2": "2 41003  98.9659 281.0623 0067722 248.3299 111.0684 14.73506426526236"
      },
      "geometry": {
        "type": "Point",
        "coordinates": [
          37.945098214637,
          -80.07393043326373
        ]
      }
    },
    {
      "type": "Feature",
      "properties": {
        "norad_id": 41006,
        "name": "FENGYUN 1C DEB",
        "group": "fengyun-1c-debris",
        "lat": 73.92887039642825,
        "lon": 106.85382263797422,
        "alt_km": 1018.9026584197563,
        "timestamp": "2025-12-27T17:24:57.696057+00:00",
        "meta_object_name": "FENGYUN 1C DEB",
        "meta_object_id": "1999-025EXL",
        "meta_epoch": "2025-12-27T10:00:19.098144",
        "meta_mean_motion": 13.85467526,
        "meta_eccentricity": 0.0190789,
        "meta_inclination": 102.3671,
        "meta_ra_of_asc_node": 236.8457,
        "meta_arg_of_pericenter": 334.4418,
        "meta_mean_anomaly": 24.7388,
        "meta_ephemeris_type": 0,
        "meta_classification_type": "U",
        "meta_norad_cat_id": 41006,
        "meta_element_set_no": 999,
        "meta_rev_at_epoch": 57692,
        "meta_bstar": 0.0032472,
        "meta_mean_motion_dot": 4.2e-05,
        "meta_mean_motion_ddot": 0,
        "tle_line1": "1 41006U 99025EXL 25361.41688771  .00004200  00000+0  32472-2 0  9990",
        "tle_line2": "2 41006 102.3671 236.8457 0190789 334.4418  24.7388 13.85467526576927"
      },
      "geometry": {
        "type": "Point",
        "coordinates": [
          106.85382263797422,
          73.92887039642825
        ]
      }
    },
    {
      "type": "Feature",
      "properties": {
        "norad_id": 41007,
        "name": "FENGYUN 1C DEB",
        "group": "fengyun-1c-debris",
        "lat": -49.15529499704812,
        "lon": 41.19944246890712,
        "alt_km": 876.5286819355915,
        "timestamp": "2025-12-27T17:24:57.696067+00:00",
        "meta_object_name": "FENGYUN 1C DEB",
        "meta_object_id": "1999-025EXM",
        "meta_epoch": "2025-11-29T06:55:22.773792",
        "meta_mean_motion": 13.85678237,
        "meta_eccentricity": 0.01723955,
        "meta_inclination": 99.9731,
        "meta_ra_of_asc_node": 359.205,
        "meta_arg_of_pericenter": 79.2855,
        "meta_mean_anomaly": 282.7657,
        "meta_ephemeris_type": 0,
        "meta_classification_type": "U",
        "meta_norad_cat_id": 41007,
        "meta_element_set_no": 999,
        "meta_rev_at_epoch": 57212,
        "meta_bstar": 0.0017167305,
        "meta_mean_motion_dot": 2.158e-05,
        "meta_mean_motion_ddot": 0,
        "tle_line1": "1 41007U 99025EXM 25333.28845803  .00002158  00000+0  17167-2 0  9990",
        "tle_line2": "2 41007  99.9731 359.2050 0172395  79.2855 282.7657 13.85678237572123"
      },
      "geometry": {
        "type": "Point",
        "coordinates": [
          41.19944246890712,
          -49.15529499704812
        ]
      }
    },
    {
      "type": "Feature",
      "properties": {
        "norad_id": 41011,
        "name": "FENGYUN 1C DEB",
        "group": "fengyun-1c-debris",
        "lat": -64.22637407975061,
        "lon": 67.42832331023087,
        "alt_km": 547.3741454579467,
        "timestamp": "2025-12-27T17:24:57.696077+00:00",
        "meta_object_name": "FENGYUN 1C DEB",
        "meta_object_id": "1999-025EXR",
        "meta_epoch": "2025-12-27T09:22:58.725408",
        "meta_mean_motion": 14.42998901,
        "meta_eccentricity": 0.0309172,
        "meta_inclination": 99.1668,
        "meta_ra_of_asc_node": 47.5306,
        "meta_arg_of_pericenter": 314.7964,
        "meta_mean_anomaly": 42.8455,
        "meta_ephemeris_type": 0,
        "meta_classification_type": "U",
        "meta_norad_cat_id": 41011,
        "meta_element_set_no": 999,
        "meta_rev_at_epoch": 57368,
        "meta_bstar": 0.00061744,
        "meta_mean_motion_dot": 3.629e-05,
        "meta_mean_motion_ddot": 0,
        "tle_line1": "1 41011U 99025EXR 25361.39095747  .00003629  00000+0  61744-3 0  9997",
        "tle_line2": "2 41011  99.1668  47.5306 0309172 314.7964  42.8455 14.42998901573683"
      },
      "geometry": {
        "type": "Point",
        "coordinates": [
          67.42832331023087,
          -64.22637407975061
        ]
      }
    }
  ]
}